[{"OBJECT_NAME":"IRIDIUM 149","OBJECT_ID":"2018-030B","EPOCH":"2026-03-09T19:36:11.240064","MEAN_MOTION":14.34219768,"ECCENTRICITY":0.00021302,"INCLINATION":86.4008,"RA_OF_ASC_NODE":331.9304,"ARG_OF_PERICENTER":82.8556,"MEAN_ANOMALY":277.2882,"EPHEMERIS_TYPE":0,"CLASSIFICATION_TYPE":"U","NORAD_CAT_ID":43250,"ELEMENT_SET_NO":999,"REV_AT_EPOCH":41591,"BSTAR":0.00012927416,"MEAN_MOTION_DOT":3.82e-6,"MEAN_MOTION_DDOT":0},{"OBJECT_NAME":"METEOR 1-5 DEB","OBJECT_ID":"1970-047E","EPOCH":"2026-03-09T17:38:01.697568","MEAN_MOTION":14.29898667,"ECCENTRICITY":0.0055144,"INCLINATION":81.2081,"RA_OF_ASC_NODE":322.4237,"ARG_OF_PERICENTER":328.2582,"MEAN_ANOMALY":31.5278,"EPHEMERIS_TYPE":0,"CLASSIFICATION_TYPE":"U","NORAD_CAT_ID":58398,"ELEMENT_SET_NO":999,"REV_AT_EPOCH":12265,"BSTAR":0.0018328401,"MEAN_MOTION_DOT":4.808e-5,"MEAN_MOTION_DDOT":0}]
